OBJECT_NAME,OBJECT_ID,EPOCH,MEAN_MOTION,ECCENTRICITY,INCLINATION,RA_OF_ASC_NODE,ARG_OF_PERICENTER,MEAN_ANOMALY,EPHEMERIS_TYPE,CLASSIFICATION_TYPE,NORAD_CAT_ID,ELEMENT_SET_NO,REV_AT_EPOCH,BSTAR,MEAN_MOTION_DOT,MEAN_MOTION_DDOT
HODOYOSHI-4,2014-033B,2026-07-12T20:29:28.004640,14.88183591,.0022532,97.5457,17.4393,217.7976,142.1660,0,U,40011,999,65262,.61358E-4,.516E-5,0
DEIMOS-2,2014-033D,2026-07-12T21:44:44.676096,14.93789876,.0000848,97.5803,67.4883,91.6014,268.5303,0,U,40013,999,64156,.13977E-4,.94E-6,0
HODOYOSHI-3,2014-033F,2026-07-12T10:42:16.909920,14.85434110,.00313014,97.6441,355.4739,271.3924,88.3706,0,U,40015,999,65137,.64978116E-4,.511E-5,0
SPOT 7,2014-034A,2026-07-12T20:45:16.266240,14.60978810,.0001595,98.0624,255.6932,95.8248,264.3135,0,U,40053,999,64088,.87579E-5,-.2E-7,0
SKYSAT-B,2014-037D,2026-07-12T21:05:41.822592,14.88088942,.0005393,98.3853,154.3116,179.8697,180.2520,0,U,40072,999,64978,.76424E-4,.641E-5,0
WORLDVIEW-3 (WV-3),2014-048A,2026-07-12T20:08:02.319072,14.85062139,.0001118,97.8558,268.3169,159.5544,200.5716,0,U,40115,999,64571,.5714E-4,.435E-5,0
GAOFEN-2,2014-049A,2026-07-12T20:26:38.124096,14.80923198,.0008074,98.0104,258.0330,141.2599,218.9193,0,U,40118,999,64303,-.34684E-4,-.322E-5,0
YAOGAN-21,2014-053A,2026-07-12T20:35:15.571968,15.26736145,.0008104,97.1466,232.9952,16.2426,343.9071,0,U,40143,999,65887,.11595E-3,.2981E-4,0
YAOGAN-22,2014-063A,2026-07-12T08:36:21.547872,13.15531629,.00068152,100.7757,345.0533,131.1733,228.9967,0,U,40275,999,56312,.25187707E-4,-.37E-6,0
ASNARO,2014-070A,2026-07-12T20:09:33.388128,15.19803923,.0006858,97.3448,269.2645,94.6926,265.5092,0,U,40298,999,64790,.15371E-3,.3226E-4,0
YAOGAN-24,2014-072A,2026-07-12T20:10:09.532704,14.76118382,.0014404,98.1512,331.3968,177.0076,183.1221,0,U,40310,999,62750,.10585E-3,.679E-5,0
CBERS 4,2014-079A,2026-07-12T21:31:03.770688,14.35515124,.0000886,98.3526,249.9196,53.1641,306.9626,0,U,40336,999,60764,-.71504E-5,-.63E-6,0
YAOGAN-26,2014-088A,2026-07-12T20:43:07.708224,15.48377600,.0002295,97.0641,193.4884,353.1637,6.9582,0,U,40362,999,64167,.26575E-3,.1399E-3,0
SMAP,2015-003A,2026-07-12T20:34:55.059744,14.63388029,.0001581,98.1283,200.5891,95.7393,264.3989,0,U,40376,999,61137,.49877E-4,.211E-5,0
KOMPSAT-3A,2015-014A,2026-07-12T20:37:30.091584,15.55330777,.0056464,97.6884,187.1245,83.8262,276.9420,0,U,40536,999,62580,.33062E-3,.24019E-3,0
SENTINEL-2A,2015-028A,2026-07-12T19:25:05.973024,14.30814069,.0001267,98.5682,268.2960,94.8760,265.2568,0,U,40697,999,57739,.44741E-4,.74E-6,0
GAOFEN-8,2015-030A,2026-07-12T20:11:33.147168,15.46888156,.0009993,97.6893,28.7688,102.8507,257.3859,0,U,40701,999,61541,.31976E-3,.16024E-3,0
CARBONITE 1 (CBNT-1),2015-032D,2026-07-12T19:28:08.301216,14.83664590,.001362,97.6518,10.8077,205.1882,154.8670,0,U,40718,999,59314,.12065E-3,.947E-5,0
YAOGAN-27,2015-040A,2026-07-12T21:00:54.484704,13.16070199,.0008485,100.1161,179.1444,150.3140,209.8456,0,U,40878,999,52104,-.44027E-3,-.21E-5,0
GAOFEN-9 01,2015-047A,2026-07-12T20:07:37.220736,14.82932333,.0028589,97.6271,228.3668,57.8954,302.5030,0,U,40894,999,58399,.68314E-4,.507E-5,0
YAOGAN-28,2015-064A,2026-07-12T20:52:26.939136,15.27741760,.0012081,97.3101,331.6175,100.1443,260.1160,0,U,41026,999,59460,.159E-3,.4244E-4,0
YAOGAN-29,2015-069A,2026-07-12T21:11:28.788576,14.83102954,.0000924,98.0026,222.5547,14.6424,345.4816,0,U,41038,999,57443,-.38934E-4,-.371E-5,0
KENT RIDGE 1,2015-077B,2026-07-12T21:33:12.261312,15.23276730,.000828,14.9801,74.7485,242.6265,117.3215,0,U,41167,999,58502,.73737E-4,.2563E-4,0
GAOFEN-4,2015-083A,2026-07-13T00:16:43.667328,1.00272598,.0004171,0.4214,83.8417,125.4227,191.4927,0,U,41194,999,3878,0,-.337E-5,0
JASON-3,2016-002A,2026-07-12T20:48:14.866272,12.87628493,.0008207,66.0416,71.8477,271.1363,88.8715,0,U,41240,999,49055,.11088E-3,-.34E-6,0
SENTINEL-3A,2016-011A,2026-07-12T19:32:06.596736,14.26739357,.0001371,98.6238,260.8281,90.9122,269.2216,0,U,41335,999,54171,.3588E-4,.43E-6,0
ZIYUAN 3-02 (ZY 3-02),2016-033A,2026-07-12T20:12:19.771200,15.21421166,.0013819,97.3832,269.1227,193.1718,166.9159,0,U,41556,999,56188,.14912E-3,.3286E-4,0
CARTOSAT-2C,2016-040A,2026-07-12T19:31:30.739008,15.19250907,.0009783,97.4482,253.4365,52.9040,307.3087,0,U,41599,999,55760,.53695E-4,.1064E-4,0
SKYSAT-C1,2016-040C,2026-07-11T15:19:14.131200,15.36708815,.0000645,96.9557,223.0369,355.4804,4.6435,0,U,41601,999,56162,.15588995E-3,.5514E-4,0
LAPAN-A3,2016-040E,2026-07-12T20:10:34.239648,15.33269418,.0008245,97.1497,189.1474,286.3965,73.6371,0,U,41603,999,55874,.67461E-4,.2095E-4,0
GAOFEN-3,2016-049A,2026-07-12T21:25:18.412608,14.42218121,.0001797,98.4016,201.2902,86.8391,273.3004,0,U,41727,999,52235,-.23354E-4,-.12E-5,0
