HODOYOSHI-4             
1 40011U 14033B   26193.85379635  .00000516  00000+0  61358-4 0  9992
2 40011  97.5457  17.4393 0022532 217.7976 142.1660 14.88183591652624
DEIMOS-2                
1 40013U 14033D   26193.90607264  .00000094  00000+0  13977-4 0  9997
2 40013  97.5803  67.4883 0000848  91.6014 268.5303 14.93789876641560
HODOYOSHI-3             
1 40015U 14033F   26193.44602905  .00000511  00000+0  64978-4 0  9996
2 40015  97.6441 355.4739 0031301 271.3924  88.3706 14.85434110651370
SPOT 7                  
1 40053U 14034A   26193.86477160 -.00000002  00000+0  87579-5 0  9997
2 40053  98.0624 255.6932 0001595  95.8248 264.3135 14.60978810640885
SKYSAT-B                
1 40072U 14037D   26193.87895628  .00000641  00000+0  76424-4 0  9999
2 40072  98.3853 154.3116 0005393 179.8697 180.2520 14.88088942649783
WORLDVIEW-3 (WV-3)      
1 40115U 14048A   26193.83891573  .00000435  00000+0  57140-4 0  9995
2 40115  97.8558 268.3169 0001118 159.5544 200.5716 14.85062139645717
GAOFEN-2                
1 40118U 14049A   26193.85183014 -.00000322  00000+0 -34684-4 0  9990
2 40118  98.0104 258.0330 0008074 141.2599 218.9193 14.80923198643033
YAOGAN-21               
1 40143U 14053A   26193.85781912  .00002981  00000+0  11595-3 0  9990
2 40143  97.1466 232.9952 0008104  16.2426 343.9071 15.26736145658874
YAOGAN-22               
1 40275U 14063A   26193.35858273 -.00000037  00000+0  25188-4 0  9992
2 40275 100.7757 345.0533 0006815 131.1733 228.9967 13.15531629563125
ASNARO                  
1 40298U 14070A   26193.83996977  .00003226  00000+0  15371-3 0  9996
2 40298  97.3448 269.2645 0006858  94.6926 265.5092 15.19803923647903
YAOGAN-24               
1 40310U 14072A   26193.84038811  .00000679  00000+0  10585-3 0  9999
2 40310  98.1512 331.3968 0014404 177.0076 183.1221 14.76118382627509
CBERS 4                 
1 40336U 14079A   26193.89657142 -.00000063  00000+0 -71504-5 0  9992
2 40336  98.3526 249.9196 0000886  53.1641 306.9626 14.35515124607649
YAOGAN-26               
1 40362U 14088A   26193.86328366  .00013990  00000+0  26575-3 0  9998
2 40362  97.0641 193.4884 0002295 353.1637   6.9582 15.48377600641672
SMAP                    
1 40376U 15003A   26193.85758171  .00000211  00000+0  49877-4 0  9994
2 40376  98.1283 200.5891 0001581  95.7393 264.3989 14.63388029611372
KOMPSAT-3A              
1 40536U 15014A   26193.85937606  .00024019  00000+0  33062-3 0  9996
2 40536  97.6884 187.1245 0056464  83.8262 276.9420 15.55330777625808
SENTINEL-2A             
1 40697U 15028A   26193.80909691  .00000074  00000+0  44741-4 0  9999
2 40697  98.5682 268.2960 0001267  94.8760 265.2568 14.30814069577390
GAOFEN-8                
1 40701U 15030A   26193.84135587  .00016024  00000+0  31976-3 0  9994
2 40701  97.6893  28.7688 0009993 102.8507 257.3859 15.46888156615416
CARBONITE 1 (CBNT-1)    
1 40718U 15032D   26193.81120719  .00000947  00000+0  12065-3 0  9997
2 40718  97.6518  10.8077 0013620 205.1882 154.8670 14.83664590593148
YAOGAN-27               
1 40878U 15040A   26193.87563061 -.00000210  00000+0 -44027-3 0  9998
2 40878 100.1161 179.1444 0008485 150.3140 209.8456 13.16070199521041
GAOFEN-9 01             
1 40894U 15047A   26193.83862524  .00000507  00000+0  68314-4 0  9998
2 40894  97.6271 228.3668 0028589  57.8954 302.5030 14.82932333583999
YAOGAN-28               
1 41026U 15064A   26193.86975624  .00004244  00000+0  15900-3 0  9998
2 41026  97.3101 331.6175 0012081 100.1443 260.1160 15.27741760594607
YAOGAN-29               
1 41038U 15069A   26193.88297209 -.00000371  00000+0 -38934-4 0  9996
2 41038  98.0026 222.5547 0000924  14.6424 345.4816 14.83102954574437
KENT RIDGE 1            
1 41167U 15077B   26193.89805858  .00002563  00000+0  73737-4 0  9997
2 41167  14.9801  74.7485 0008280 242.6265 117.3215 15.23276730585020
GAOFEN-4                
1 41194U 15083A   26194.01161652 -.00000337  00000+0  00000+0 0  9992
2 41194   0.4214  83.8417 0004171 125.4227 191.4927  1.00272598 38782
JASON-3                 
1 41240U 16002A   26193.86683873 -.00000034  00000+0  11088-3 0  9998
2 41240  66.0416  71.8477 0008207 271.1363  88.8715 12.87628493490550
SENTINEL-3A             
1 41335U 16011A   26193.81396524  .00000043  00000+0  35880-4 0  9998
2 41335  98.6238 260.8281 0001371  90.9122 269.2216 14.26739357541719
ZIYUAN 3-02 (ZY 3-02)   
1 41556U 16033A   26193.84189550  .00003286  00000+0  14912-3 0  9993
2 41556  97.3832 269.1227 0013819 193.1718 166.9159 15.21421166561880
CARTOSAT-2C             
1 41599U 16040A   26193.81355022  .00001064  00000+0  53695-4 0  9998
2 41599  97.4482 253.4365 0009783  52.9040 307.3087 15.19250907557609
SKYSAT-C1               
1 41601U 16040C   26192.63835800  .00005514  00000+0  15589-3 0  9991
2 41601  96.9557 223.0369 0000645 355.4804   4.6435 15.36708815561620
LAPAN-A3                
1 41603U 16040E   26193.84067407  .00002095  00000+0  67461-4 0  9995
2 41603  97.1497 189.1474 0008245 286.3965  73.6371 15.33269418558743
GAOFEN-3                
1 41727U 16049A   26193.89257422 -.00000120  00000+0 -23354-4 0  9996
2 41727  98.4016 201.2902 0001797  86.8391 273.3004 14.42218121522358
